TIANMU-1 07             
1 57399U 23101A   26065.57454230  .00008352  00000+0  29795-3 0  9991
2 57399  97.2728 118.5929 0004609 142.4105 217.7458 15.29118809145964
STARLINK-34841          
1 65208U 25176L   26068.52239512  .00024585  00000+0  83957-3 0  9991
2 65208  53.1573 153.5940 0001331  48.4700 311.6415 15.30194917 33091
